ONEWEB-0207             
1 48242U 21031AJ  25027.45164728  .00000276  00000+0  71108-3 0  9994
2 48242  87.8992  30.2426 0001833  82.3147 277.8191 13.14503374181851
ONEWEB-0208             
1 48243U 21031AK  25027.43340918  .00000095  00000+0  22252-3 0  9995
2 48243  87.8990  30.2604 0001990  90.9077 269.2281 13.14502284181864
ONEWEB-0200             
1 48244U 21031AL  25027.70140377  .00000089  00000+0  20460-3 0  9995
2 48244  87.8990  30.2012 0001994  90.6977 269.4381 13.14502775181833
ONEWEB-0217             
1 48245U 21031AM  25027.48890726 -.00000151  00000+0 -44305-3 0  9997
2 48245  87.8990  30.2279 0002108  93.5243 266.6127 13.14502775181742
ONEWEB-0211             
1 48767U 21045A   25027.38983486  .00000070  00000+0  15219-3 0  9996
2 48767  87.9092 359.8849 0001806  90.4914 269.6423 13.15551041177910
ONEWEB-0223             
1 48768U 21045B   25027.86837210 -.00000094  00000+0 -28352-3 0  9993
2 48768  87.9095 359.8043 0001820 101.3746 258.7588 13.15550113179104
ONEWEB-0230             
1 48769U 21045C   25027.45957522  .00000139  00000+0  33514-3 0  9992
2 48769  87.9083 359.9524 0001644  84.4600 275.6718 13.15548434178173
ONEWEB-0237             
1 48770U 21045D   25027.90483118  .00000212  00000+0  53020-3 0  9995
2 48770  87.9101 359.8095 0001763  96.4422 263.6909 13.15548721179084
